      2.10          N: GNSS NAV DATA                        RINEX VERSION / TYPE
fic2rin                                 12/23/2021 00:17:39 PGM / RUN BY / DATE
                                                            END OF HEADER
16 21 12 22  8  0  0.0-4.441696219146e-04-5.911715561524e-12 0.000000000000e+00
    2.200000000000e+01 4.487500000000e+01 4.080884270924e-09 2.858754342593e-02
    2.505257725716e-06 1.251972850878e-02 9.808689355850e-06 5.153578256607e+03
    2.880000000000e+05 5.215406417847e-08-2.926150368468e+00 2.048909664154e-07
    9.714235548903e-01 1.965312500000e+02 6.903415048432e-01-7.852112786301e-09
   -3.203704875739e-10 1.000000000000e+00 2.189000000000e+03 0.000000000000e+00
    2.400000000000e+00 0.000000000000e+00-1.024454832077e-08 2.200000000000e+01
    2.808000000000e+05 4.000000000000e+00
12 21 12 22  8  0  0.0-1.444122754037e-04-5.570655048359e-12 0.000000000000e+00
    8.400000000000e+01 4.950000000000e+01 3.988023260033e-09 1.889832999359e+00
    2.473592758179e-06 8.482103468850e-03 1.053325831890e-05 5.153636316299e+03
    2.880000000000e+05-2.793967723846e-08-2.944793579958e+00-2.365559339523e-07
    9.714493651539e-01 1.803437500000e+02 1.233215647605e+00-7.588887536198e-09
   -3.625151002090e-10 1.000000000000e+00 2.189000000000e+03 0.000000000000e+00
    2.400000000000e+00 0.000000000000e+00-1.257285475731e-08 8.400000000000e+01
    2.808000000000e+05 4.000000000000e+00
30 21 12 22  8  0  0.0-5.011684261262e-04-2.842170943040e-12 0.000000000000e+00
    2.100000000000e+01-6.000000000000e+00 5.375223899651e-09 2.554328081583e+00
   -3.632158041000e-07 5.373297841288e-03 5.640089511871e-06 5.153593158722e+03
    2.880000000000e+05-8.381903171539e-08 2.240477049845e+00-4.284083843231e-08
    9.359853796852e-01 2.583750000000e+02-2.750471406574e+00-8.272130281715e-09
   -1.828647599084e-10 1.000000000000e+00 2.189000000000e+03 0.000000000000e+00
    2.400000000000e+00 0.000000000000e+00 3.725290298462e-09 2.100000000000e+01
    2.808000000000e+05 4.000000000000e+00
29 21 12 22  8  0  0.0-4.572672769427e-04-5.002220859751e-12 0.000000000000e+00
    6.700000000000e+01 1.215312500000e+02 3.956236221690e-09-7.429167383784e-01
    6.085261702538e-06 1.750503084622e-03 5.781650543213e-06 5.153779569626e+03
    2.880000000000e+05 7.450580596924e-09-1.894822356077e+00-1.117587089539e-08
    9.822506481679e-01 2.793437500000e+02 2.322068270161e+00-7.919615598064e-09
    2.567964108870e-10 1.000000000000e+00 2.189000000000e+03 0.000000000000e+00
    2.400000000000e+00 0.000000000000e+00-1.024454832077e-08 6.700000000000e+01
    2.808000000000e+05 4.000000000000e+00
15 21 12 22  8  0  0.0-9.732181206346e-05 2.842170943040e-12 0.000000000000e+00
    6.000000000000e+01-1.971875000000e+01 5.025923635607e-09-1.766982538692e+00
   -9.648501873016e-07 1.392186270095e-02 9.015202522278e-06 5.153716464996e+03
    2.880000000000e+05 2.924352884293e-07 1.049478833452e+00-1.862645149231e-09
    9.294989311214e-01 1.855937500000e+02 1.065146430070e+00-7.958188633357e-09
    5.107355599004e-10 1.000000000000e+00 2.189000000000e+03 0.000000000000e+00
    2.400000000000e+00 0.000000000000e+00-1.071020960808e-08 6.000000000000e+01
    2.808000000000e+05 4.000000000000e+00
21 21 12 22  8  0  0.0 1.543429680169e-04 9.094947017729e-13 0.000000000000e+00
    4.300000000000e+01-1.968750000000e+01 4.870917178966e-09-7.002732659238e-01
   -1.134350895882e-06 2.441394794732e-02 1.916661858559e-06 5.153600795746e+03
    2.880000000000e+05-3.129243850708e-07-9.990155064915e-01-1.192092895508e-07
    9.589409240357e-01 3.461562500000e+02-1.040880116972e+00-8.796437835515e-09
    2.142946405177e-10 1.000000000000e+00 2.189000000000e+03 0.000000000000e+00
    2.400000000000e+00 0.000000000000e+00-1.024454832077e-08 4.300000000000e+01
    2.808000000000e+05 4.000000000000e+00
24 21 12 22  8  0  0.0 2.757250331342e-04 1.477928890381e-12 0.000000000000e+00
    3.300000000000e+01-6.031250000000e+00 5.329150551940e-09-2.747870279713e+00
   -3.315508365631e-07 1.219005370513e-02 5.533918738365e-06 5.153692001343e+03
    2.880000000000e+05 5.774199962616e-08 2.144671083188e+00-1.527369022369e-07
    9.342042447395e-01 2.581562500000e+02 7.927846196444e-01-8.155339702633e-09
   -5.357366012941e-12 1.000000000000e+00 2.189000000000e+03 0.000000000000e+00
    2.400000000000e+00 0.000000000000e+00 2.328306436539e-09 3.300000000000e+01
    2.808000000000e+05 4.000000000000e+00
25 21 12 22  8  0  0.0 2.594604156911e-04 5.684341886081e-12 0.000000000000e+00
    3.800000000000e+01 3.684375000000e+01 4.329466053925e-09 1.676924094825e+00
    1.875683665276e-06 1.022997207474e-02 1.017004251480e-05 5.153739496231e+03
    2.880000000000e+05-2.458691596985e-07-3.020803182635e+00-1.173466444016e-07
    9.588542505283e-01 1.827187500000e+02 9.670194107543e-01-7.861041729656e-09
   -4.346609625166e-10 1.000000000000e+00 2.189000000000e+03 0.000000000000e+00
    2.400000000000e+00 0.000000000000e+00 5.587935447693e-09 3.800000000000e+01
    2.808000000000e+05 4.000000000000e+00
19 21 12 22  8  0  0.0 9.544566273689e-05 5.002220859751e-12 0.000000000000e+00
    9.700000000000e+01 1.197187500000e+02 4.087670267874e-09 1.546538350867e+00
    6.077811121941e-06 8.923680172302e-03 4.719942808151e-06 5.153676980972e+03
    2.880000000000e+05 1.937150955200e-07-1.862762835526e+00-1.117587089539e-07
    9.789645260077e-01 2.967187500000e+02 1.988113089645e+00-7.889257190657e-09
    2.239378993409e-10 1.000000000000e+00 2.189000000000e+03 0.000000000000e+00
    2.400000000000e+00 0.000000000000e+00-1.583248376846e-08 9.700000000000e+01
    2.808000000000e+05 4.000000000000e+00
13 21 12 22  8  0  0.0 2.332772128284e-04 5.798028723802e-12 0.000000000000e+00
    5.500000000000e+01-3.531250000000e+00 4.372324982028e-09-1.386687810028e+00
   -1.788139343262e-07 5.778272170573e-03 8.355826139450e-06 5.153673442841e+03
    2.880000000000e+05 1.601874828339e-07 1.306110334887e+00 8.568167686462e-08
    9.680399043705e-01 2.222812500000e+02 9.769602477786e-01-7.754608724865e-09
    4.303750697063e-10 1.000000000000e+00 2.189000000000e+03 0.000000000000e+00
    2.400000000000e+00 0.000000000000e+00-1.117587089539e-08 5.500000000000e+01
    2.808000000000e+05 4.000000000000e+00
26 21 12 22  8  0  0.0 1.673125661910e-04 3.524291969370e-12 0.000000000000e+00
    6.600000000000e+01 2.965625000000e+01 4.806628786811e-09 1.030333239801e+00
    1.663342118263e-06 6.655342876911e-03 9.406358003616e-06 5.153674259186e+03
    2.880000000000e+05-7.264316082001e-08-3.066734703913e+00 1.043081283569e-07
    9.397015310035e-01 1.861875000000e+02 3.323546896211e-01-8.055335537058e-09
   -4.893060958486e-10 1.000000000000e+00 2.189000000000e+03 0.000000000000e+00
    2.400000000000e+00 0.000000000000e+00 6.984919309616e-09 6.600000000000e+01
    2.808000000000e+05 4.000000000000e+00
31 21 12 22  8  0  0.0-1.562316901982e-04-1.818989403546e-12 0.000000000000e+00
    1.770000000000e+02-2.718750000000e+00 4.929133889640e-09 2.116105471830e+00
   -1.639127731323e-07 1.044512481894e-02 6.075948476791e-06 5.153654228210e+03
    2.880000000000e+05-1.918524503708e-07 2.244358411428e+00 5.587935447693e-08
    9.550655004374e-01 2.642812500000e+02 3.543502802944e-01-8.087836890870e-09
   -2.110802209099e-10 1.000000000000e+00 2.189000000000e+03 0.000000000000e+00
    2.400000000000e+00 0.000000000000e+00-1.303851604462e-08 1.770000000000e+02
    2.808000000000e+05 4.000000000000e+00
20 21 12 22  8  0  0.0 5.175317637622e-04-2.273736754432e-13 0.000000000000e+00
    9.100000000000e+01-1.365000000000e+02 4.838772982889e-09-1.968178181470e+00
   -6.934627890587e-06 5.385907017626e-03 6.999820470810e-06 5.153717489243e+03
    2.880000000000e+05-7.450580596924e-09-2.684287610211e-02-1.285225152969e-07
    9.414047245998e-01 2.313437500000e+02 3.074237301226e+00-8.245700609385e-09
   -9.964700784071e-11 1.000000000000e+00 2.189000000000e+03 0.000000000000e+00
    2.400000000000e+00 0.000000000000e+00-8.381903171539e-09 9.100000000000e+01
    2.808000000000e+05 4.000000000000e+00
17 21 12 22  8  0  0.0 5.509173497558e-04 5.343281372916e-12 0.000000000000e+00
    9.600000000000e+01 1.165000000000e+02 4.150530029093e-09-8.388749289765e-01
    6.169080734253e-06 1.377361139748e-02 5.807727575302e-06 5.153727415085e+03
    2.880000000000e+05-1.937150955200e-07-1.907719307275e+00 1.154839992523e-07
    9.802774057458e-01 2.855625000000e+02-1.519199880544e+00-8.131767292176e-09
    2.860833450911e-10 1.000000000000e+00 2.189000000000e+03 0.000000000000e+00
    3.400000000000e+00 0.000000000000e+00-1.117587089539e-08 9.600000000000e+01
    2.808000000000e+05 4.000000000000e+00
14 21 12 22  8  0  0.0-5.910685285926e-05-6.025402399246e-12 0.000000000000e+00
    1.370000000000e+02 4.728125000000e+01 4.443399371133e-09 1.902838453728e+00
    2.395361661911e-06 1.260005054064e-03 9.765848517418e-06 5.153646207809e+03
    2.880000000000e+05 2.607703208923e-08-2.975197760426e+00 2.793967723846e-08
    9.548671784850e-01 1.867812500000e+02 3.066351395969e+00-7.821040063426e-09
   -3.750156209059e-10 1.000000000000e+00 2.189000000000e+03 0.000000000000e+00
    2.400000000000e+00 0.000000000000e+00-7.916241884232e-09 3.930000000000e+02
    2.808000000000e+05 4.000000000000e+00
18 21 12 22  8  0  0.0 2.751434221864e-04-6.821210263297e-12 0.000000000000e+00
    2.170000000000e+02-2.978125000000e+01 4.551261006861e-09-2.869722080815e+00
   -1.490116119385e-06 2.088284585625e-03 1.180917024612e-06 5.153634248734e+03
    2.880000000000e+05-5.960464477539e-08-9.009583780871e-01 3.352761268616e-08
    9.701567058695e-01 3.645625000000e+02 3.096336011532e+00-8.286773748818e-09
   -3.857303529318e-11 1.000000000000e+00 2.189000000000e+03 0.000000000000e+00
    2.400000000000e+00 0.000000000000e+00-8.381903171539e-09 7.290000000000e+02
    2.808000000000e+05 4.000000000000e+00
